NORAD_CAT_ID,OBJECT_NAME,OBJECT_TYPE,EPOCH,MEAN_MOTION,ECCENTRICITY,INCLINATION,RA_OF_ASC_NODE,ARG_OF_PERICENTER,MEAN_ANOMALY,BSTAR,MEAN_MOTION_DOT,MEAN_MOTION_DDOT,TLE_LINE0,TLE_LINE1,TLE_LINE2,SEMIMAJOR_AXIS,PERIOD,APOGEE,PERIGEE,DECAYED
55950.0,STARLINK-5911,PAYLOAD,2023-12-26 18:48:40,14.98328086,0.0002895,70.0001,131.4804,271.406,88.6768,3.7986e-07,-8.8e-07,0.0,0 STARLINK-5911,1 55950U 23037AN  23360.78379799 -.00000088  00000-0  37986-6 0  9998,2 55950  70.0001 131.4804 0002895 271.4060  88.6768 14.98328086 44391,6950.199,96.107,574.076,570.052,0.0
55950.0,STARLINK-5911,PAYLOAD,2023-12-27 14:02:16,14.98328953,0.0002933,70.0001,129.4607,259.3343,100.7486,4.0174e-05,3.86e-06,0.0,0 STARLINK-5911,1 55950U 23037AN  23361.58491634  .00000386  00000-0  40174-4 0  9991,2 55950  70.0001 129.4607 0002933 259.3343 100.7486 14.98328953 44173,6950.196,96.107,574.1,570.023,0.0
55950.0,STARLINK-5911,PAYLOAD,2023-12-27 18:50:40,14.98337192,0.0003344,69.9992,128.9538,263.4581,96.6197,0.00011066,1.228e-05,0.0,0 STARLINK-5911,1 55950U 23037AN  23361.78518843  .00001228  00000-0  11066-3 0  9998,2 55950  69.9992 128.9538 0003344 263.4581  96.6197 14.98337192 44541,6950.171,96.107,574.36,569.712,0.0
55950.0,STARLINK-5911,PAYLOAD,2023-12-28 12:28:09,14.98400129,0.000289,69.9993,127.1025,261.9701,98.113,-0.0011956,-0.00014355,0.0,0 STARLINK-5911,1 55950U 23037AN  23362.51954904 -.00014355  00000-0 -11956-2 0  9996,2 55950  69.9993 127.1025 0002890 261.9701  98.1130 14.98400129 44653,6949.976,96.103,573.85,569.832,0.0
55950.0,STARLINK-5911,PAYLOAD,2023-12-28 14:04:17,14.98327016,0.0003096,69.9995,126.9343,272.6125,87.468,6.8637e-06,-1.1e-07,0.0,0 STARLINK-5911,1 55950U 23037AN  23362.58631867 -.00000011  00000-0  68637-5 0  9997,2 55950  69.9995 126.9343 0003096 272.6125  87.4680 14.98327016 44321,6950.202,96.107,574.219,569.915,0.0
55950.0,STARLINK-5911,PAYLOAD,2023-12-28 18:52:40,14.98386728,0.000286,69.9994,126.429,258.2241,101.8597,-0.00090545,-0.00010896,0.0,0 STARLINK-5911,1 55950U 23037AN  23362.78658098 -.00010896  00000-0 -90545-3 0  9998,2 55950  69.9994 126.4290 0002860 258.2241 101.8597 14.98386728 44359,6950.017,96.103,573.87,569.895,0.0
55950.0,STARLINK-5911,PAYLOAD,2023-12-29 10:54:02,14.98331717,0.0003168,69.999,124.746,264.5147,95.565,-2.846e-05,-4.33e-06,0.0,0 STARLINK-5911,1 55950U 23037AN  23363.45419600 -.00000433  00000-0 -28460-4 0  9991,2 55950  69.9990 124.7460 0003168 264.5147  95.5650 14.98331717 44797,6950.188,96.107,574.254,569.851,0.0
55950.0,STARLINK-5911,PAYLOAD,2023-12-29 14:06:18,14.98329741,0.0002974,69.9996,124.4093,266.4734,93.6085,-4.2546e-05,-6.01e-06,0.0,0 STARLINK-5911,1 55950U 23037AN  23363.58771763 -.00000601  00000-0 -42546-4 0  9994,2 55950  69.9996 124.4093 0002974 266.4734  93.6085 14.98329741 44479,6950.194,96.107,574.126,569.992,0.0
55950.0,STARLINK-5911,PAYLOAD,2023-12-29 17:18:34,14.98332378,0.0002992,69.9996,124.0725,268.2127,91.8689,7.7275e-07,-8.4e-07,0.0,0 STARLINK-5911,1 55950U 23037AN  23363.72123478 -.00000084  00000-0  77275-6 0  9997,2 55950  69.9996 124.0725 0002992 268.2127  91.8689 14.98332378 44495,6950.186,96.107,574.13,569.971,0.0
55950.0,STARLINK-5911,PAYLOAD,2023-12-30 10:56:03,14.98327923,0.0003358,69.9993,122.222,270.1061,89.9714,3.7728e-05,3.57e-06,0.0,0 STARLINK-5911,1 55950U 23037AN  23364.45559607  .00000357  00000-0  37728-4 0  9994,2 55950  69.9993 122.2220 0003358 270.1061  89.9714 14.98327923 44945,6950.199,96.107,574.398,569.73,0.0
55950.0,STARLINK-5911,PAYLOAD,2023-12-30 14:08:19,14.98329655,0.0003367,69.9992,121.8845,268.9833,91.094,1.923e-05,1.36e-06,0.0,0 STARLINK-5911,1 55950U 23037AN  23364.58911521  .00000136  00000-0  19230-4 0  9998,2 55950  69.9992 121.8845 0003367 268.9833  91.0940 14.98329655 44628,6950.194,96.107,574.399,569.719,0.0
55950.0,STARLINK-5911,PAYLOAD,2023-12-30 17:20:35,14.98331598,0.0003047,69.9995,121.548,268.6154,91.4656,3.7876e-05,3.59e-06,0.0,0 STARLINK-5911,1 55950U 23037AN  23364.72263330  .00000359  00000-0  37876-4 0  9995,2 55950  69.9995 121.5480 0003047 268.6154  91.4656 14.98331598 44640,6950.188,96.107,574.171,569.935,0.0
55950.0,STARLINK-5911,PAYLOAD,2023-12-31 10:58:04,14.98327666,0.0002952,69.9998,119.6973,265.2516,94.8306,1.0144e-05,2.8e-07,0.0,0 STARLINK-5911,1 55950U 23037AN  23365.45699638  .00000028  00000-0  10144-4 0  9992,2 55950  69.9998 119.6973 0002952 265.2516  94.8306 14.98327666 45097,6950.2,96.107,574.117,570.013,0.0
55950.0,STARLINK-5911,PAYLOAD,2023-12-31 17:22:36,14.98329063,0.0002873,69.9998,119.0237,261.7011,98.3823,-2.0233e-06,-1.17e-06,0.0,0 STARLINK-5911,1 55950U 23037AN  23365.72403593 -.00000117  00000-0 -20233-5 0  9997,2 55950  69.9998 119.0237 0002873 261.7011  98.3823 14.98329063 44799,6950.196,96.107,574.058,570.064,0.0
55950.0,STARLINK-5911,PAYLOAD,2024-01-01 11:00:05,14.98329491,0.0002903,69.9998,117.1726,263.8526,96.2302,-9.0948e-06,-2.01e-06,0.0,0 STARLINK-5911,1 55950U 23037AN  24001.45839530 -.00000201  00000-0 -90948-5 0  9993,2 55950  69.9998 117.1726 0002903 263.8526  96.2302 14.98329491 45244,6950.194,96.107,574.077,570.042,0.0
55950.0,STARLINK-5911,PAYLOAD,2024-01-01 14:12:21,14.98329443,0.000289,69.9999,116.8359,263.1425,96.9405,-7.6955e-06,-1.85e-06,0.0,0 STARLINK-5911,1 55950U 23037AN  24001.59191528 -.00000185  00000-0 -76955-5 0  9999,2 55950  69.9999 116.8359 0002890 263.1425  96.9405 14.98329443 44921,6950.195,96.107,574.068,570.051,0.0
55950.0,STARLINK-5911,PAYLOAD,2024-01-01 17:24:37,14.98331067,0.0002878,69.9999,116.4994,263.277,96.8061,1.0779e-05,3.6e-07,0.0,0 STARLINK-5911,1 55950U 23037AN  24001.72543365  .00000036  00000-0  10779-4 0  9998,2 55950  69.9999 116.4994 0002878 263.2770  96.8061 14.98331067 44946,6950.19,96.107,574.055,570.054,0.0
55950.0,STARLINK-5911,PAYLOAD,2024-01-02 11:02:05,14.98332553,0.0002902,69.9998,114.6476,265.8167,94.266,4.781e-05,4.78e-06,0.0,0 STARLINK-5911,1 55950U 23037AN  24002.45979038  .00000478  00000-0  47810-4 0  9995,2 55950  69.9998 114.6476 0002902 265.8167  94.2660 14.98332553 45394,6950.185,96.107,574.067,570.033,0.0
55950.0,STARLINK-5911,PAYLOAD,2024-01-02 14:14:22,14.98330348,0.0002914,69.9998,114.3109,265.3197,94.7629,7.9116e-05,8.51e-06,0.0,0 STARLINK-5911,1 55950U 23037AN  24002.59331067  .00000851  00000-0  79116-4 0  9993,2 55950  69.9998 114.3109 0002914 265.3197  94.7629 14.98330348 45070,6950.192,96.107,574.082,570.032,0.0
55950.0,STARLINK-5911,PAYLOAD,2024-01-02 17:26:38,14.98332731,0.0002888,69.9998,113.974,267.0696,93.0132,6.2902e-05,6.58e-06,0.0,0 STARLINK-5911,1 55950U 23037AN  24002.72682951  .00000658  00000-0  62902-4 0  9999,2 55950  69.9998 113.9740 0002888 267.0696  93.0132 14.98332731 45090,6950.184,96.107,574.057,570.042,0.0
55950.0,STARLINK-5911,PAYLOAD,2024-01-03 11:04:07,14.98323264,0.0002773,70.0001,112.1222,267.7086,92.3756,-6.4092e-05,-8.57e-06,0.0,0 STARLINK-5911,1 55950U 23037AN  24003.46119940 -.00000857  00000-0 -64092-4 0  9999,2 55950  70.0001 112.1222 0002773 267.7086  92.3756 14.98323264 45542,6950.214,96.107,574.006,570.151,0.0
55950.0,STARLINK-5911,PAYLOAD,2024-01-03 14:16:23,14.98352035,0.0002363,70.0003,111.7852,257.3802,102.7093,-0.00054093,-6.545e-05,0.0,0 STARLINK-5911,1 55950U 23037AN  24003.59471437 -.00006545  00000-0 -54093-3 0  9994,2 55950  70.0003 111.7852 0002363 257.3802 102.7093 14.98352035 45227,6950.125,96.106,573.632,570.347,0.0
55950.0,STARLINK-5911,PAYLOAD,2024-01-03 17:28:39,14.98350687,0.000234,70.0004,111.4487,257.5684,102.5213,-0.00050141,-6.073e-05,0.0,0 STARLINK-5911,1 55950U 23037AN  24003.72823271 -.00006073  00000-0 -50141-3 0  9992,2 55950  70.0004 111.4487 0002340 257.5684 102.5213 14.98350687 45586,6950.129,96.106,573.62,570.368,0.0
55950.0,STARLINK-5911,PAYLOAD,2024-01-04 11:06:08,14.9833091,0.0003066,69.9994,109.5963,274.2197,85.8611,-1.8837e-05,-3.18e-06,0.0,0 STARLINK-5911,1 55950U 23037AN  24004.46259370 -.00000318  00000-0 -18837-4 0  9990,2 55950  69.9994 109.5963 0003066 274.2197  85.8611 14.98330910 45693,6950.19,96.107,574.186,569.924,0.0
55950.0,STARLINK-5911,PAYLOAD,2024-01-04 14:18:24,14.98332022,0.0002729,70.0002,109.2608,269.8861,90.1985,1.5336e-06,-7.5e-07,0.0,0 STARLINK-5911,1 55950U 23037AN  24004.59611284 -.00000075  00000-0  15336-5 0  9991,2 55950  70.0002 109.2608 0002729 269.8861  90.1985 14.98332022 45376,6950.187,96.107,573.948,570.155,0.0
55950.0,STARLINK-5911,PAYLOAD,2024-01-04 15:54:32,14.98332144,0.0002659,70.0004,109.093,265.4965,94.589,6.6827e-06,-1.3e-07,0.0,0 STARLINK-5911,1 55950U 23037AN  24004.66287245 -.00000013  00000-0  66827-5 0  9998,2 55950  70.0004 109.0930 0002659 265.4965  94.5890 14.98332144 45382,6950.186,96.107,573.899,570.203,0.0
55950.0,STARLINK-5911,PAYLOAD,2024-01-05 12:44:17,14.98322205,0.0002814,70.0001,106.9045,267.361,92.7227,3.1175e-05,2.79e-06,0.0,0 STARLINK-5911,1 55950U 23037AN  24005.53075749  .00000279  00000-0  31175-4 0  9999,2 55950  70.0001 106.9045 0002814 267.3610  92.7227 14.98322205 45856,6950.217,96.107,574.038,570.126,0.0
55950.0,STARLINK-5911,PAYLOAD,2024-01-05 14:20:25,14.98322739,0.0002818,70.0001,106.7363,267.783,92.3007,3.4883e-05,3.23e-06,0.0,0 STARLINK-5911,1 55950U 23037AN  24005.59751729  .00000323  00000-0  34883-4 0  9993,2 55950  70.0001 106.7363 0002818 267.7830  92.3007 14.98322739 45527,6950.215,96.107,574.039,570.122,0.0
55950.0,STARLINK-5911,PAYLOAD,2024-01-05 15:56:33,14.98323589,0.0002835,69.9999,106.5678,268.6502,91.4332,5.7616e-05,5.94e-06,0.0,0 STARLINK-5911,1 55950U 23037AN  24005.66427644  .00000594  00000-0  57616-4 0  9996,2 55950  69.9999 106.5678 0002835 268.6502  91.4332 14.98323589 45538,6950.213,96.107,574.048,570.107,0.0
55950.0,STARLINK-5911,PAYLOAD,2024-01-06 12:46:18,14.98330742,0.0002868,69.9999,104.3801,263.9349,96.1483,-1.7569e-06,-1.14e-06,0.0,0 STARLINK-5911,1 55950U 23037AN  24006.53215323 -.00000114  00000-0 -17569-5 0  9996,2 55950  69.9999 104.3801 0002868 263.9349  96.1483 14.98330742 46006,6950.191,96.107,574.049,570.062,0.0
